ONEWEB-0555             
1 56057U 23043M   25348.00267174  .00000100  00000+0  22864-3 0  9999
2 56057  87.9046 265.6429 0001264  86.8148 273.3127 13.16595238134591
ONEWEB-0557             
1 56058U 23043N   25347.78891472  .00000026  00000+0  34218-4 0  9992
2 56058  87.9047 265.6981 0002030 112.9448 247.1897 13.16597200134563
ONEWEB-0558             
1 56059U 23043P   25347.83630218  .00000040  00000+0  66474-4 0  9993
2 56059  87.9221 280.9533 0001851  59.8982 300.2335 13.21823661133750
ONEWEB-0559             
1 56060U 23043Q   25347.82477773 -.00000016  00000+0 -70350-4 0  9992
2 56060  87.9219 280.9490 0002000  70.8643 289.2707 13.21824443133764
ONEWEB-0566             
1 56061U 23043R   25347.89390334 -.00000067  00000+0 -19336-3 0  9999
2 56061  87.9219 280.9334 0001934  66.6756 293.4581 13.21825270133750
ONEWEB-0568             
1 56062U 23043S   25347.80634166 -.00000055  00000+0 -17832-3 0  9991
2 56062  87.9049 265.6822 0001444  78.6710 281.4583 13.16595729134581
ONEWEB-0574             
1 56063U 23043T   25347.88732849 -.00000086  00000+0 -23859-3 0  9997
2 56063  87.9216 280.9224 0001866  81.4515 278.6830 13.21825525133798
ONEWEB-0575             
1 56064U 23043U   25347.80000973 -.00000077  00000+0 -23437-3 0  9998
2 56064  87.9046 265.6836 0001702  88.3140 271.8185 13.16595890134576
ONEWEB-0576             
1 56065U 23043V   25347.78101270  .00000076  00000+0  16489-3 0  9994
2 56065  87.9050 265.6883 0001708  81.9662 278.1662 13.16595080134568
ONEWEB-0577             
1 56066U 23043W   25347.78734209 -.00000014  00000+0 -71480-4 0  9996
2 56066  87.9047 265.6862 0002094  95.8317 264.3053 13.16595161134596
ONEWEB-0578             
1 56067U 23043X   25347.87415352 -.00000038  00000+0 -12450-3 0  9999
2 56067  87.9221 280.9354 0001560  79.4496 280.6813 13.21823730133754
ONEWEB-0579             
1 56068U 23043Y   25347.86429596 -.00000075  00000+0 -21321-3 0  9992
2 56068  87.9223 280.9248 0002028  71.8789 288.2565 13.21827483133768
ONEWEB-0581             
1 56069U 23043Z   25347.79367882 -.00000073  00000+0 -22389-3 0  9997
2 56069  87.9048 265.6988 0001990  84.3421 275.7937 13.16595839134568
ONEWEB-0609             
1 56070U 23043AA  25347.90811153 -.00000112  00000+0 -33266-3 0  9997
2 56070  87.8996 296.1891 0001782  75.7187 284.4141 13.15549088132077
ONEWEB-0613             
1 56071U 23043AB  25347.90335305 -.00000107  00000+0 -31912-3 0  9998
2 56071  87.8993 296.2023 0001961  71.6244 288.5100 13.15549396132073
ONEWEB-0630             
1 56072U 23043AC  25347.89859547 -.00000150  00000+0 -43312-3 0  9991
2 56072  87.8991 296.1746 0002000  72.0228 288.1120 13.15549717132069
ONEWEB-0632             
1 56073U 23043AD  25347.89383557 -.00000143  00000+0 -41485-3 0  9996
2 56073  87.8990 296.1937 0001962  81.6307 278.5046 13.15549720132065
ONEWEB-0633             
1 56074U 23043AE  25347.88750730 -.00000143  00000+0 -41370-3 0  9990
2 56074  87.8989 296.1581 0001941  66.4414 293.6920 13.15549621132043
ONEWEB-0634             
1 56075U 23043AF  25347.94930495 -.00000021  00000+0 -89016-4 0  9991
2 56075  87.8995 296.1955 0001495  72.7192 287.4102 13.15549174132049
ONEWEB-0635             
1 56076U 23043AG  25347.86847293 -.00000092  00000+0 -27875-3 0  9998
2 56076  87.8992 296.1655 0001975  84.8982 275.2374 13.15550256132069
ONEWEB-0636             
1 56077U 23043AH  25347.86055661 -.00000271  00000+0 -75309-3 0  9993
2 56077  87.8991 296.1848 0001966  84.4919 275.6435 13.15548083132044
ONEWEB-0637             
1 56078U 23043AJ  25347.85422740  .00000154  00000+0  37592-3 0  9999
2 56078  87.8994 296.2022 0001577  85.3972 274.7338 13.15550582132061
ONEWEB-0647             
1 56079U 23043AK  25347.92554138  .00000095  00000+0  21891-3 0  9994
2 56079  87.8990 296.2013 0001952  79.3265 280.8085 13.15548794132062
ONEWEB-0651             
1 56080U 23043AL  25347.84471303  .00000129  00000+0  30850-3 0  9992
2 56080  87.8994 296.2107 0001812  87.1076 273.0262 13.15550681133255
ONEWEB-0718             
1 56081U 23043AM  25347.91603609  .00000057  00000+0  11637-3 0  9999
2 56081  87.8993 296.1769 0001325  66.7542 293.3727 13.15548488132070
ONEWEB-0561             
1 56710U 23068A   25347.89665682  .00000003  00000+0 -24811-4 0  9992
2 56710  87.9196 311.4031 0002237  87.7613 272.3777 13.20769806125049
ONEWEB-0668             
1 56711U 23068B   25347.84434778  .00000025  00000+0  32126-4 0  9999
2 56711  87.9055 265.6613 0001137  74.2793 285.8463 13.16595887127390
ONEWEB-0676             
1 56712U 23068C   25348.00427301  .00000302  00000+0  75562-3 0  9991
2 56712  87.9046 265.6515 0001857  82.7795 277.3547 13.16594405127335
ONEWEB-0677             
1 56713U 23068D   25347.96137972 -.00000093  00000+0 -26035-3 0  9998
2 56713  87.9208 311.3736 0001828  87.2503 272.8839 13.20770872125358
ONEWEB-0678             
1 56714U 23068E   25347.88434167 -.00000090  00000+0 -27241-3 0  9993
2 56714  87.9001 296.1591 0002118  74.6092 285.5272 13.15549651124922
ONEWEB-0679             
1 56715U 23068F   25347.81108262 -.00000061  00000+0 -19425-3 0  9994
2 56715  87.9039 265.6736 0001399  92.5980 267.5311 13.16594755127339
ONEWEB-0680             
1 56716U 23068G   25347.86757092 -.00000081  00000+0 -22820-3 0  9996
2 56716  87.9224 280.9232 0001175  85.1947 274.9321 13.21824909126616
ONEWEB-0681             
1 56717U 23068H   25347.84700780  .00000006  00000+0 -16251-4 0  9995
2 56717  87.9218 280.9422 0002513  98.2219 261.9200 13.21825141126605
ONEWEB-0682             
1 56718U 23068J   25347.91047885  .00000025  00000+0  31447-4 0  9998
2 56718  87.8990 296.1681 0001348  88.3630 271.7655 13.15546711125091
ONEWEB-0683             
1 56719U 23068K   25347.85581941  .00000104  00000+0  24214-3 0  9999
2 56719  87.9001 296.1635 0001517  79.0550 281.0751 13.15549648125050
ONEWEB-0684             
1 56720U 23068L   25347.86373111  .00000060  00000+0  12530-3 0  9999
2 56720  87.9000 296.1563 0002705  50.1254 310.0114 13.15547219124880
ONEWEB-0686             
1 56721U 23068M   25347.84029965  .00000099  00000+0  23108-3 0  9998
2 56721  87.9038 265.7125 0001507  61.2235 298.9046 13.15056973127321
ONEWEB-0694             
1 56722U 23068N   25347.85385029  .00000030  00000+0  44598-4 0  9998
2 56722  87.9061 265.6427 0001221  76.7037 283.4230 13.16594575127382
ONEWEB-0696             
1 56723U 23068P   25347.89701217 -.00000146  00000+0 -42084-3 0  9991
2 56723  87.8989 296.2027 0002109  72.8798 287.2563 13.15549785125004
ONEWEB-0703             
1 56724U 23068Q   25347.90651826 -.00000054  00000+0 -17743-3 0  9996
2 56724  87.8986 296.1824 0002847  76.5877 283.5571 13.15549892124897
ONEWEB-0721             
1 56725U 23068R   25347.92524474  .00000137  00000+0  29382-3 0  9999
2 56725  86.6796 144.6167 0001409  96.6490 263.4803 13.22454334133459
ONEWEB-0015             
1 61594U 24188A   25347.75570317 -.00000339  00000+0 -99163-3 0  9991
2 61594  87.8852  58.0255 0002012 120.0713 240.0615 13.11417303 60153
ONEWEB-0687             
1 61595U 24188B   25347.87057785 -.00000029  00000+0 -10914-3 0  9997
2 61595  87.9100  42.7464 0001523 119.1732 240.9552 13.17647253 61491
ONEWEB-0688             
1 61596U 24188C   25347.89927191 -.00000060  00000+0 -18897-3 0  9990
2 61596  87.9097  42.7408 0002511 130.2478 229.8874 13.17647913 61490
ONEWEB-0689             
1 61597U 24188D   25347.94220657  .00000138  00000+0  35382-3 0  9992
2 61597  87.8847  57.9232 0001386 107.9430 252.1849 13.11420205 60176
ONEWEB-0690             
1 61598U 24188E   25347.95238301  .00000449  00000+0  12301-2 0  9999
2 61598  87.8871  57.9345 0002361  91.9208 268.2191 13.11419938 60357
ONEWEB-0691             
1 61599U 24188F   25347.94728801 -.00000354  00000+0 -10348-2 0  9994
2 61599  87.8844  57.8364 0001886 116.1952 243.9370 13.11419205 60205
ONEWEB-0692             
1 61600U 24188G   25347.89135358  .00000435  00000+0  11925-2 0  9990
2 61600  87.8852  57.9920 0001200  72.0159 288.1100 13.11415174 60185
ONEWEB-0693             
1 61601U 24188H   25347.68329046  .00000045  00000+0  82803-4 0  9999
2 61601  87.9102  42.8034 0002595  96.6827 263.4600 13.17649339 61456
ONEWEB-0695             
1 61602U 24188J   25347.94390496  .00000174  00000+0  45537-3 0  9991
2 61602  87.8857  57.9705 0001135  99.6925 260.4332 13.11419980 60185
ONEWEB-0697             
1 61603U 24188K   25347.89982655  .00000071  00000+0  16497-3 0  9999
2 61603  87.8853  57.9695 0001302  76.7135 283.4138 13.11414108 60169
ONEWEB-0698             
1 61604U 24188L   25347.95409814  .00000592  00000+0  16337-2 0  9998
2 61604  87.8856  57.9738 0002062  70.1029 290.0321 13.11417762 60195
ONEWEB-0699             
1 61605U 24188M   25347.74313871 -.00000409  00000+0 -12078-2 0  9990
2 61605  87.8820  73.2294 0001410  80.3125 279.8161 13.10374897 59028
ONEWEB-0700             
1 61606U 24188N   25347.74479802 -.00000363  00000+0 -10748-2 0  9999
2 61606  87.8829  73.1147 0000936 101.0176 259.1056 13.10374635 59016
ONEWEB-0701             
1 61607U 24188P   25347.76141501  .00000457  00000+0  12740-2 0  9990
2 61607  87.8818  73.2267 0001312  73.6461 286.4811 13.10374509 59022
ONEWEB-0702             
1 61608U 24188Q   25347.69466262 -.00001012  00000+0 -28928-2 0  9992
2 61608  87.8834  57.9121 0001006  70.6173 289.5064 13.11417772 60179
ONEWEB-0704             
1 61609U 24188R   25347.74978271 -.00000182  00000+0 -55677-3 0  9996
2 61609  87.8833  73.1940 0000847  77.9497 282.1726 13.10375647 59006
ONEWEB-0705             
1 61610U 24188S   25347.75476798  .00000059  00000+0  13275-3 0  9995
2 61610  87.8820  73.2149 0000971 146.5956 213.5233 13.10375621 51170
ONEWEB-0706             
1 61611U 24188T   25347.73981713 -.00000597  00000+0 -17452-2 0  9991
2 61611  87.8811  73.2389 0001012 102.2513 257.8728 13.10374318 59093
